[{"OBJECT_NAME":"HAWK-7B","OBJECT_ID":"2023-054R","EPOCH":"2026-03-09T16:32:12.682752","MEAN_MOTION":15.26206341,"ECCENTRICITY":0.00036614,"INCLINATION":97.2859,"RA_OF_ASC_NODE":316.7839,"ARG_OF_PERICENTER":61.5878,"MEAN_ANOMALY":298.573,"EPHEMERIS_TYPE":0,"CLASSIFICATION_TYPE":"U","NORAD_CAT_ID":56193,"ELEMENT_SET_NO":999,"REV_AT_EPOCH":16184,"BSTAR":0.00031010844,"MEAN_MOTION_DOT":7.955e-5,"MEAN_MOTION_DDOT":0},{"OBJECT_NAME":"STARLINK-36507","OBJECT_ID":"2026-005F","EPOCH":"2026-03-09T11:49:36.683616","MEAN_MOTION":15.27593745,"ECCENTRICITY":0.00021331,"INCLINATION":43.0013,"RA_OF_ASC_NODE":239.3292,"ARG_OF_PERICENTER":265.9144,"MEAN_ANOMALY":94.1464,"EPHEMERIS_TYPE":0,"CLASSIFICATION_TYPE":"U","NORAD_CAT_ID":67409,"ELEMENT_SET_NO":999,"REV_AT_EPOCH":866,"BSTAR":0.00093302103,"MEAN_MOTION_DOT":0.00025513,"MEAN_MOTION_DDOT":0}]
