HAWK-7B                 
1 56193U 23054R   26068.68903567  .00007955  00000+0  31011-3 0  9998
2 56193  97.2859 316.7839 0003661  61.5878 298.5730 15.26206341161848
STARLINK-36507          
1 67409U 26005F   26068.49278569  .00025513  00000+0  93302-3 0  9996
2 67409  43.0013 239.3292 0002133 265.9144  94.1464 15.27593745  8665
